NORAD_CAT_ID,OBJECT_NAME,OBJECT_TYPE,EPOCH,MEAN_MOTION,ECCENTRICITY,INCLINATION,RA_OF_ASC_NODE,ARG_OF_PERICENTER,MEAN_ANOMALY,BSTAR,MEAN_MOTION_DOT,MEAN_MOTION_DDOT,TLE_LINE0,TLE_LINE1,TLE_LINE2,SEMIMAJOR_AXIS,PERIOD,APOGEE,PERIGEE,DECAYED
49153.0,STARLINK-3072,PAYLOAD,2022-01-30 14:00:01,15.69709309,0.0004178,70.0002,97.6514,296.4376,15.8927,0.0005366,0.00064241,0.0,0 STARLINK-3072,1 49153U 21082Z   22030.58334491  .00064241  00000-0  53660-3 0  9999,2 49153  70.0002  97.6514 0004178 296.4376  15.8927 15.69709309  3691,6737.866,91.737,362.546,356.916,0.0
49153.0,STARLINK-3072,PAYLOAD,2022-01-30 22:00:00,15.69697687,0.0003974,69.9998,96.7144,295.0417,100.3083,0.0002979,0.00035428,0.0,0 STARLINK-3072,1 49153U 21082Z   22030.91667824  .00035428  00000-0  29790-3 0  9997,2 49153  69.9998  96.7144 0003974 295.0417 100.3083 15.69697687 21884,6737.899,91.737,362.442,357.086,0.0
49153.0,STARLINK-3072,PAYLOAD,2022-01-31 14:00:01,15.69729309,0.0004135,69.9999,94.8403,299.0507,262.5676,0.00065966,0.00079228,0.0,0 STARLINK-3072,1 49153U 21082Z   22031.58335648  .00079228  00000-0  65966-3 0  9998,2 49153  69.9999  94.8403 0004135 299.0507 262.5676 15.69729309  3680,6737.808000000001,91.736,362.46,356.88699999999994,0.0
49153.0,STARLINK-3072,PAYLOAD,2022-01-31 22:00:01,15.697711800000002,0.0003915,69.9997,93.9035,296.7457,348.0226,0.00034741,0.00041507,0.0,0 STARLINK-3072,1 49153U 21082Z   22031.91668981  .00041507  00000-0  34741-3 0  9990,2 49153  69.9997  93.9035 0003915 296.7457 348.0226 15.69771180 22048,6737.689,91.733,362.191,356.916,0.0
49153.0,STARLINK-3072,PAYLOAD,2022-02-01 14:00:01,15.69771106,0.0004042,69.9996,92.0294,300.0777,151.0434,-4.780100000000001e-05,-5.921e-05,0.0,0 STARLINK-3072,1 49153U 21082Z   22032.58335648 -.00005921  00000-0 -47801-4 0  9999,2 49153  69.9996  92.0294 0004042 300.0777 151.0434 15.69771106 22142,6737.689,91.733,362.277,356.831,0.0
49153.0,STARLINK-3072,PAYLOAD,2022-02-01 22:00:00,15.69772334,0.0003953,69.9992,91.0922,296.3686,237.8218,-0.00040622,-0.00048479,0.0,0 STARLINK-3072,1 49153U 21082Z   22032.91667824 -.00048479  00000-0 -40622-3 0  9998,2 49153  69.9992  91.0922 0003953 296.3686 237.8218 15.69772334  3686,6737.685,91.733,362.214,356.88699999999994,0.0
49153.0,STARLINK-3072,PAYLOAD,2022-02-02 06:00:00,15.69758837,0.0004056,69.9992,90.1551,294.0024,323.3033,-8.9169e-05,-0.00010849,0.0,0 STARLINK-3072,1 49153U 21082Z   22033.25001157 -.00010849  00000-0 -89169-4 0  9997,2 49153  69.9992  90.1551 0004056 294.0024 323.3033 15.69758837 22252,6737.724,91.734,362.322,356.856,0.0
49153.0,STARLINK-3072,PAYLOAD,2022-02-02 14:00:01,15.69758774,0.0004267,69.999,89.2181,299.2938,41.1455,9.302e-05,0.00010913,0.0,0 STARLINK-3072,1 49153U 21082Z   22033.58334491  .00010913  00000-0  93020-4 0  9994,2 49153  69.9990  89.2181 0004267 299.2938  41.1455 15.69758774  3693,6737.724,91.734,362.464,356.714,0.0
49153.0,STARLINK-3072,PAYLOAD,2022-02-02 22:00:00,15.69706994,0.0004188,69.9989,88.2811,294.4221,129.1789,0.00040344,0.00048149,0.0,0 STARLINK-3072,1 49153U 21082Z   22033.91667824  .00048149  00000-0  40344-3 0  9992,2 49153  69.9989  88.2811 0004188 294.4221 129.1789 15.69706994  3698,6737.871999999999,91.737,362.559,356.916,0.0
49153.0,STARLINK-3072,PAYLOAD,2022-02-03 14:00:01,15.69718849,0.0004335,69.999,86.4069,298.8341,291.0103,0.00015484,0.00018292,0.0,0 STARLINK-3072,1 49153U 21082Z   22034.58334491  .00018292  00000-0  15484-3 0  9990,2 49153  69.9990  86.4069 0004335 298.8341 291.0103 15.69718849 22467,6737.8380000000025,91.736,362.624,356.783,0.0
49153.0,STARLINK-3072,PAYLOAD,2022-02-03 22:00:01,15.69718024,0.0004078,69.9987,85.4697,295.0623,17.9777,0.00065804,0.00078993,0.0,0 STARLINK-3072,1 49153U 21082Z   22034.91668981  .00078993  00000-0  65804-3 0  9996,2 49153  69.9987  85.4697 0004078 295.0623  17.9777 15.69718024  3696,6737.840999999999,91.736,362.453,356.958,0.0
49153.0,STARLINK-3072,PAYLOAD,2022-02-04 06:00:00,15.69812088,0.0004132,69.9989,84.5328,294.7095,101.3905,-8.5499e-05,-0.00010435,0.0,0 STARLINK-3072,1 49153U 21082Z   22035.25001157 -.00010435  00000-0 -85499-4 0  9992,2 49153  69.9989  84.5328 0004132 294.7095 101.3905 15.69812088 22562,6737.571999999999,91.731,362.221,356.653,0.0
49153.0,STARLINK-3072,PAYLOAD,2022-02-04 14:00:01,15.69807175,0.0004209,69.9987,83.5954,299.8049,179.5435,-0.00052904,-0.00063059,0.0,0 STARLINK-3072,1 49153U 21082Z   22035.58335648 -.00063059  00000-0 -52904-3 0  9997,2 49153  69.9987  83.5954 0004209 299.8049 179.5435 15.69807175  3693,6737.5859999999975,91.731,362.287,356.615,0.0
49153.0,STARLINK-3072,PAYLOAD,2022-02-04 22:00:00,15.69736056,0.0004238,69.9989,82.6584,294.7832,267.6841,-0.00086811,-0.00102556,0.0,0 STARLINK-3072,1 49153U 21082Z   22035.91667824 -.00102556  00000-0 -86811-3 0  9998,2 49153  69.9989  82.6584 0004238 294.7832 267.6841 15.69736056 22678,6737.7890000000025,91.735,362.51,356.7990000000001,0.0
49153.0,STARLINK-3072,PAYLOAD,2022-02-05 06:00:00,15.69683838,0.0004508,69.9994,81.7214,292.8021,352.7392,9.6834e-06,9.41e-06,0.0,0 STARLINK-3072,1 49153U 21082Z   22036.25001157  .00000941  00000-0  96834-5 0  9998,2 49153  69.9994  81.7214 0004508 292.8021 352.7392 15.69683838 22725,6737.939,91.738,362.841,356.766,0.0
49153.0,STARLINK-3072,PAYLOAD,2022-02-05 14:00:01,15.69811895,0.0004695,69.9996,80.7884,298.5612,70.0506,-0.0015147,-0.00177788,0.0,0 STARLINK-3072,1 49153U 21082Z   22036.58334491 -.00177788  00000-0 -15147-2 0  9995,2 49153  69.9996  80.7884 0004695 298.5612  70.0506 15.69811895 22773,6737.571999999999,91.731,362.6,356.274,0.0
49153.0,STARLINK-3072,PAYLOAD,2022-02-05 22:00:01,15.6966957,0.0004268,69.9989,79.8473,292.7607,159.0518,0.00055215,0.00066015,0.0,0 STARLINK-3072,1 49153U 21082Z   22036.91668981  .00066015  00000-0  55215-3 0  9995,2 49153  69.9989  79.8473 0004268 292.7607 159.0518 15.69669570 22822,6737.979,91.739,362.72,356.969,0.0
49153.0,STARLINK-3072,PAYLOAD,2022-02-06 14:00:01,15.69723168,0.0004421,69.9989,77.9733,297.7992,320.1628,0.00049209,0.00058894,0.0,0 STARLINK-3072,1 49153U 21082Z   22037.58335648  .00058894  00000-0  49209-3 0  9992,2 49153  69.9989  77.9733 0004421 297.7992 320.1628 15.69723168 22932,6737.826,91.736,362.67,356.712,0.0
49153.0,STARLINK-3072,PAYLOAD,2022-02-06 22:00:00,15.69721876,0.0004325,69.9991,77.0363,292.7252,48.3014,5.9242e-05,6.859e-05,0.0,0 STARLINK-3072,1 49153U 21082Z   22037.91667824  .00006859  00000-0  59242-4 0  9996,2 49153  69.9991  77.0363 0004325 292.7252  48.3014 15.69721876 22989,6737.83,91.736,362.609,356.781,0.0
49153.0,STARLINK-3072,PAYLOAD,2022-02-07 14:00:01,15.6973976,0.0004614,69.9994,75.1624,295.8192,211.4202,0.00042361,0.00050656,0.0,0 STARLINK-3072,1 49153U 21082Z   22038.58334491  .00050656  00000-0  42361-3 0  9998,2 49153  69.9994  75.1624 0004614 295.8192 211.4202 15.69739760  3688,6737.779,91.735,362.752,356.535,0.0
49153.0,STARLINK-3072,PAYLOAD,2022-02-07 22:00:00,15.69754022,0.0004392,69.9994,74.2254,291.6097,298.7712,0.00019371,0.00022985,0.0,0 STARLINK-3072,1 49153U 21082Z   22038.91667824  .00022985  00000-0  19371-3 0  9993,2 49153  69.9994  74.2254 0004392 291.6097 298.7712 15.69754022 23143,6737.738,91.734,362.562,356.644,0.0
49153.0,STARLINK-3072,PAYLOAD,2022-02-08 14:00:01,15.6974588,0.0004386999999999,69.999,72.3514,297.6215,99.0353,0.00036708,0.0004383999999999,0.0,0 STARLINK-3072,1 49153U 21082Z   22039.58334491  .00043840  00000-0  36708-3 0  9994,2 49153  69.9990  72.3514 0004387 297.6215  99.0353 15.69745880 23245,6737.761,91.735,362.582,356.67,0.0
49153.0,STARLINK-3072,PAYLOAD,2022-02-08 22:00:01,15.69762375,0.0004141999999999,69.9993,71.4144,292.8371,187.0367,5.795e-05,6.716e-05,0.0,0 STARLINK-3072,1 49153U 21082Z   22039.91668981  .00006716  00000-0  57950-4 0  9999,2 49153  69.9993  71.4144 0004142 292.8371 187.0367 15.69762375  3694,6737.714,91.734,362.37,356.788,0.0
49153.0,STARLINK-3072,PAYLOAD,2022-02-09 06:00:00,15.69759537,0.000411,69.9999,70.4775,294.5501,268.4161,-1.0069e-05,-1.415e-05,0.0,0 STARLINK-3072,1 49153U 21082Z   22040.25001157 -.00001415  00000-0 -10069-4 0  9997,2 49153  69.9999  70.4775 0004110 294.5501 268.4161 15.69759537 23355,6737.722,91.734,362.356,356.8180000000001,0.0
49153.0,STARLINK-3072,PAYLOAD,2022-02-09 14:00:01,15.69787303,0.000429,69.9995,69.5403,296.7547,349.3439,-0.00056004,-0.0006666,0.0,0 STARLINK-3072,1 49153U 21082Z   22040.58334491 -.00066660  00000-0 -56004-3 0  9994,2 49153  69.9995  69.5403 0004290 296.7547 349.3439 15.69787303  3718,6737.643,91.732,362.398,356.617,0.0
49153.0,STARLINK-3072,PAYLOAD,2022-02-09 22:00:00,15.69682246,0.0004157,69.9994,68.6034,291.5628,77.6898,0.00090162,0.00108537,0.0,0 STARLINK-3072,1 49153U 21082Z   22040.91667824  .00108537  00000-0  90162-3 0  9991,2 49153  69.9994  68.6034 0004157 291.5628  77.6898 15.69682246 23455,6737.943,91.738,362.609,357.00699999999995,0.0
49153.0,STARLINK-3072,PAYLOAD,2022-02-10 06:00:00,15.69793621,0.0004202,69.9995,67.6667,293.8136,158.5232,-0.00089845,-0.00106337,0.0,0 STARLINK-3072,1 49153U 21082Z   22041.25001157 -.00106337  00000-0 -89845-3 0  9994,2 49153  69.9995  67.6667 0004202 293.8136 158.5232 15.69793621 23504,6737.624,91.732,362.321,356.658,0.0
49153.0,STARLINK-3072,PAYLOAD,2022-02-10 14:00:01,15.69717723,0.0004131,69.999,66.7296,297.7326,237.8186,0.00026025,0.00030934,0.0,0 STARLINK-3072,1 49153U 21082Z   22041.58335648  .00030934  00000-0  26025-3 0  9993,2 49153  69.9990  66.7296 0004131 297.7326 237.8186 15.69717723 23555,6737.842,91.736,362.49,356.923,0.0
49153.0,STARLINK-3072,PAYLOAD,2022-02-10 22:00:00,15.69700574,0.000398,69.9992,65.7925,292.5548,326.0429,0.00092814,0.00111861,0.0,0 STARLINK-3072,1 49153U 21082Z   22041.91667824  .00111861  00000-0  92814-3 0  9992,2 49153  69.9992  65.7925 0003980 292.5548 326.0429 15.69700574  3662,6737.891,91.737,362.437,357.074,0.0
